LEMUR-1                 
1 40044U 14033AL  26182.64350969  .00002091  00000+0  24455-3 0  9998
2 40044  97.7894 332.1282 0048884  32.2755 328.1435 14.85299358647619
LEMUR-2-GREENBERG       
1 42837U 17042N   26182.46099547  .00022792  00000+0  74362-3 0  9997
2 42837  97.3818   3.0237 0007383 318.3895  41.6784 15.31767963490578
LEMUR-2-ANDIS           
1 42838U 17042P   26182.45704225  .00031827  00000+0  92385-3 0  9997
2 42838  97.3675   3.2540 0007269 316.0889  43.9776 15.35419059490648
LEMUR-2-MONSON          
1 42839U 17042Q   26182.76273436  .00019222  00000+0  69587-3 0  9990
2 42839  97.4080   3.2741 0005227 306.9600  53.1161 15.28432707490394
LEMUR-2-FURIAUS         
1 42840U 17042R   26182.92228792  .00021218  00000+0  71511-3 0  9993
2 42840  97.3767   1.4049 0007056  20.4625 339.6898 15.30735377490464
LEMUR-2-PETERG          
1 42841U 17042S   26182.77601912  .00030058  00000+0  89840-3 0  9992
2 42841  97.3989   7.8348 0002744 285.9076  74.1865 15.34529729490674
LEMUR-2-DEMBITZ         
1 42842U 17042T   26182.74581498  .00019778  00000+0  66712-3 0  9995
2 42842  97.3820   4.2645 0005528 334.2160  25.8805 15.30733459490574
LEMUR-2-ZACHARY         
1 42845U 17042W   26182.77205591  .00058469  00000+0  98297-3 0  9991
2 42845  97.3581  14.7301 0002325 318.9854  41.1223 15.51562241491463
LEMUR-2-AMANDA-SVANTE   
1 48269U 21034B   26182.18021965  .00046032  00000+0  13452-2 0  9991
2 48269  97.5758 260.8415 0003647 174.0587 186.0699 15.35144577283206
LEMUR-2-SPECIAL-K       
1 48273U 21034F   26182.71275339  .00221627  00000+0  18601-2 0  9997
2 48273  97.5649 270.6685 0005445 221.5395 138.5453 15.69225295283968
LEMUR-2-EMBRIONOVIS     
1 56970U 23084AQ  26182.90826680  .00016154  00000+0  43479-3 0  9998
2 56970  97.6310 327.6766 0007541 259.3990 100.6405 15.37921309169941
LEMUR-2-DEVERILL-M-T    
1 57391U 23100F   26182.91820433  .00032726  00000+0  80695-3 0  9990
2 57391  99.4456 225.9378 0005085 354.8755   5.2432 15.40491472163514
LEMUR-2-BASS            
1 58259U 23174D   26182.53939658  .00021274  00000+0  47424-3 0  9992
2 58259  97.3852 267.4560 0008108 118.7448 241.4615 15.43575549147570
LEMUR-2-JK0903EM1407    
1 58336U 23174CJ  26182.19921462  .00037020  00000+0  60604-3 0  9995
2 58336  97.3933 273.0704 0004739  77.6135 282.5648 15.52401475147906
LEMUR-2-MJR092620       
1 58340U 23174CN  26182.21218621  .00026175  00000+0  54816-3 0  9996
2 58340  97.3982 272.5031 0006519  75.4862 284.7110 15.45395379147818
LEMUR-2-NIMBUS2000      
1 58899U 24022A   26182.50128742  .00027279  00000+0  67019-3 0  9999
2 58899  97.4088  32.6860 0009995  72.5448 287.6890 15.40582934134474
LEMUR-2-VALHALLA        
1 58900U 24022B   26182.50113819  .00018789  00000+0  47000-3 0  9995
2 58900  97.4087  32.6678 0010472  68.4779 291.7583 15.40105073134476
LEMUR-2-CAEL            
1 58903U 24022E   26182.82332115  .00021046  00000+0  50355-3 0  9992
2 58903  97.4070  33.9559 0008514  53.9964 306.2071 15.41451292134597
LEMUR-2-JOHNNYTRUONG    
1 59146U 24043BA  26182.95806485  .00048293  00000+0  56112-3 0  9995
2 59146  97.5385 335.5875 0004650 132.1783 227.9869 15.61600134130341
LEMUR-2-TOMATOKECHUP    
1 60471U 24149D   26182.17743459  .00014921  00000+0  42326-3 0  9993
2 60471  97.3801 264.2617 0002608 148.4852 211.6549 15.36321245104313
LEMUR-2-STELLA          
1 60533U 24149BT  26182.17847706  .00016239  00000+0  94556-3 0  9998
2 60533  97.6740 264.6964 0001118  98.1994 261.9363 15.12103283102616
LEMUR-2-MARHISYAM       
1 60536U 24149BW  26182.69355576  .00012221  00000+0  72400-3 0  9998
2 60536  97.6887 265.6780 0003228  91.5322 268.6278 15.11542363102674
LEMUR-2-AHMED-ASRAR     
1 60576U 24149DN  26182.18451582  .00017036  00000+0  96663-3 0  9996
2 60576  97.7011 267.3131 0000635 337.6809  22.4393 15.13024997102685
LEMUR-2-LLOYD           
1 60577U 24149DP  26182.69338948  .00012989  00000+0  81289-3 0  9993
2 60577  97.6752 263.8319 0005169 104.1992 255.9811 15.09521744102587
LEMUR-2-SQUIRRELCOMM    
1 60578U 24149DQ  26182.19706122  .00007047  00000+0  47065-3 0  9995
2 60578  97.6709 263.0647 0005350  20.0284 340.1153 15.07307833102516
LEMUR-2-SIERRINI        
1 60579U 24149DR  26182.19030253  .00015792  00000+0  94149-3 0  9992
2 60579  97.6843 264.8460 0006360 127.6294 232.5514 15.11240535102576
LEMUR-2-WILSON          
1 62694U 25009CP  26182.21564283  .00002781  00000+0  25808-3 0  9996
2 62694  97.7022 260.4341 0003014  18.0759 342.0568 14.95224005 79459
LEMUR-2-STAR-FOX        
1 62696U 25009CR  26182.94306824  .00009193  00000+0  69271-3 0  9999
2 62696  97.6948 264.4465 0004083  81.5620 278.6067 15.02695027 79775
LEMUR-2-ARIANNA         
1 62699U 25009CU  26182.94152923  .00009343  00000+0  70400-3 0  9994
2 62699  97.6889 264.2081 0004395  86.2769 273.8959 15.02692165 79773
LEMUR-2-ALISIA          
1 62706U 25009DB  26182.18432764  .00011559  00000+0  86327-3 0  9990
2 62706  97.6943 264.2576 0003027 173.4262 186.7003 15.02973118102263
